[{"OBJECT_NAME":"CHECKMATE 8","OBJECT_ID":"2023-050A","EPOCH":"2026-03-09T17:58:24.939264","MEAN_MOTION":13.84940059,"ECCENTRICITY":0.00059939,"INCLINATION":81.0051,"RA_OF_ASC_NODE":167.1365,"ARG_OF_PERICENTER":221.2042,"MEAN_ANOMALY":138.8662,"EPHEMERIS_TYPE":0,"CLASSIFICATION_TYPE":"U","NORAD_CAT_ID":56162,"ELEMENT_SET_NO":999,"REV_AT_EPOCH":14838,"BSTAR":0.00011917594,"MEAN_MOTION_DOT":1.46e-6,"MEAN_MOTION_DDOT":0},{"OBJECT_NAME":"SL-8 R\/B","OBJECT_ID":"1978-031B","EPOCH":"2026-03-09T16:26:32.320320","MEAN_MOTION":13.78908889,"ECCENTRICITY":0.00357538,"INCLINATION":82.926,"RA_OF_ASC_NODE":131.3678,"ARG_OF_PERICENTER":156.1395,"MEAN_ANOMALY":324.0778,"EPHEMERIS_TYPE":0,"CLASSIFICATION_TYPE":"U","NORAD_CAT_ID":10745,"ELEMENT_SET_NO":999,"REV_AT_EPOCH":41133,"BSTAR":9.366421e-5,"MEAN_MOTION_DOT":1.11e-6,"MEAN_MOTION_DDOT":0}]
